{
    "links": {
        "self": "http://www.neowsapp.com/rest/v1/neo/3789101?api_key=iIulBulltgU6a56xZRHN4H3l9WmuAYTsLGpBGhQ2"
    },
    "id": "3789101",
    "neo_reference_id": "3789101",
    "name": "(2017 VH1)",
    "designation": "2017 VH1",
    "nasa_jpl_url": "http://ssd.jpl.nasa.gov/sbdb.cgi?sstr=3789101",
    "absolute_magnitude_h": 23.9,
    "estimated_diameter": {
        "kilometers": {
            "estimated_diameter_min": 0.04411182,
            "estimated_diameter_max": 0.0986370281
        },
        "meters": {
            "estimated_diameter_min": 44.1118199997,
            "estimated_diameter_max": 98.6370281305
        },
        "miles": {
            "estimated_diameter_min": 0.0274098057,
            "estimated_diameter_max": 0.0612901888
        },
        "feet": {
            "estimated_diameter_min": 144.7238235278,
            "estimated_diameter_max": 323.6123073718
        }
    },
    "is_potentially_hazardous_asteroid": false,
    "close_approach_data": [
        {
            "close_approach_date": "2013-11-28",
            "close_approach_date_full": "2013-Nov-28 01:31",
            "epoch_date_close_approach": 1385602260000,
            "relative_velocity": {
                "kilometers_per_second": "17.486756935",
                "kilometers_per_hour": "62952.3249660198",
                "miles_per_hour": "39116.1265879138"
            },
            "miss_distance": {
                "astronomical": "0.3773899981",
                "lunar": "146.8047092609",
                "kilometers": "56456739.875064047",
                "miles": "35080591.4497239686"
            },
            "orbiting_body": "Earth"
        },
        {
            "close_approach_date": "2017-11-11",
            "close_approach_date_full": "2017-Nov-11 05:02",
            "epoch_date_close_approach": 1510376520000,
            "relative_velocity": {
                "kilometers_per_second": "10.7986262037",
                "kilometers_per_hour": "38875.0543333434",
                "miles_per_hour": "24155.4469550711"
            },
            "miss_distance": {
                "astronomical": "0.1279909694",
                "lunar": "49.7884870966",
                "kilometers": "19147176.401475178",
                "miles": "11897503.7212983364"
            },
            "orbiting_body": "Earth"
        },
        {
            "close_approach_date": "2021-10-14",
            "close_approach_date_full": "2021-Oct-14 22:14",
            "epoch_date_close_approach": 1634249640000,
            "relative_velocity": {
                "kilometers_per_second": "11.7994114945",
                "kilometers_per_hour": "42477.8813803127",
                "miles_per_hour": "26394.1035721171"
            },
            "miss_distance": {
                "astronomical": "0.3318198188",
                "lunar": "129.0779095132",
                "kilometers": "49639538.116265956",
                "miles": "30844578.7033279528"
            },
            "orbiting_body": "Earth"
        }
    ],
    "orbital_data": {
        "orbit_id": "7",
        "orbit_determination_date": "2017-12-29 06:22:07",
        "first_observation_date": "2017-11-09",
        "last_observation_date": "2017-12-09",
        "data_arc_in_days": 30,
        "observations_used": 55,
        "orbit_uncertainty": "7",
        "minimum_orbit_intersection": ".12794",
        "jupiter_tisserand_invariant": "3.188",
        "epoch_osculation": "2459000.5",
        "eccentricity": ".5635865465890876",
        "semi_major_axis": "2.499674397253626",
        "inclination": "14.97871719088059",
        "ascending_node_longitude": "238.5457651055159",
        "orbital_period": "1443.522607376005",
        "perihelion_distance": "1.090891536108296",
        "perihelion_argument": "152.7674975862567",
        "aphelion_distance": "3.908457258398957",
        "perihelion_time": "2459496.666344347058",
        "mean_anomaly": "236.2611108047479",
        "mean_motion": ".2493899286097071",
        "equinox": "J2000",
        "orbit_class": {
            "orbit_class_type": "AMO",
            "orbit_class_description": "Near-Earth asteroid orbits similar to that of 1221 Amor",
            "orbit_class_range": "1.017 AU < q (perihelion) < 1.3 AU"
        }
    },
    "is_sentry_object": false
}